BLUEBON                 
1 62688U 25009CH  26068.70316231  .00010452  00000+0  37313-3 0  9992
2 62688  97.4017 152.2033 0001193  43.3900 316.7434 15.29047253 63767
STARLINK-36103          
1 66985U 25288AC  26068.16440462  .00026678  00000+0  97589-3 0  9997
2 66985  43.0021  26.7029 0001900 273.6990  86.3644 15.27565504 15207
